GLOBALSTAR M023         
1 25621U 99004A   25262.98067019 -.00000039  00000+0  36099-3 0  9997
2 25621  52.0089 124.7926 0010016 340.7464 157.7616 12.62506612227701
GLOBALSTAR M040         
1 25622U 99004B   25263.07554403 -.00000047  00000+0  31599-3 0  9996
2 25622  51.9901 128.7990 0000163 150.0251   4.4418 12.62017384227235
GLOBALSTAR M036         
1 25623U 99004C   25263.00172916 -.00000044  00000+0  56904-3 0  9999
2 25623  52.0000 350.4093 0010613 229.9655 300.9114 11.86608886190235
GLOBALSTAR M038         
1 25624U 99004D   25263.16123706 -.00000084  00000+0  93431-4 0  9991
2 25624  51.9962 158.0568 0001070 260.0641 255.5980 12.32532063214089
GLOBALSTAR M022         
1 25649U 99012A   25263.10801939 -.00000074  00000+0  15479-3 0  9996
2 25649  52.0064  32.8601 0002593  18.6442 152.2132 12.02502529187795
GLOBALSTAR M041         
1 25650U 99012B   25263.10438548 -.00000095  00000+0 -12959-3 0  9994
2 25650  52.0011 277.2204 0001484 139.2261 220.8687 11.96682621189647
GLOBALSTAR M046         
1 25651U 99012C   25263.00045514 -.00000125  00000+0 -39723-3 0  9993
2 25651  52.0084 339.8302 0002457  90.5636  81.3311 12.09413488195131
GLOBALSTAR M037         
1 25652U 99012D   25263.09772896 -.00000095  00000+0  51716-4 0  9995
2 25652  51.9989 255.0207 0002287  40.1897 348.2630 12.62451314223262
